{"type": "FeatureCollection", "features": [ {"type": "Feature", "properties": {"norad_id": 31715, "name": "FENGYUN 1C DEB", "group": "fengyun-1c-debris", "lat": 26.90974652584505, "lon": -173.9335154446762, "alt_km": 632.1307298146903, "timestamp": "2025-12-26T12:57:39.556416+00:00", "meta": {"OBJECT_NAME": "FENGYUN 1C DEB", "OBJECT_ID": "1999-025CDN", "EPOCH": "2025-12-25T23:36:34.173504", "MEAN_MOTION": 14.52262555, "ECCENTRICITY": 0.01870342, "INCLINATION": 99.2928, "RA_OF_ASC_NODE": 190.2178, "ARG_OF_PERICENTER": 80.0469, "MEAN_ANOMALY": 282.1776, "EPHEMERIS_TYPE": 0, "CLASSIFICATION_TYPE": "U", "NORAD_CAT_ID": 31715, "ELEMENT_SET_NO": 999, "REV_AT_EPOCH": 61909, "BSTAR": 0.00068225877, "MEAN_MOTION_DOT": 3.424e-05, "MEAN_MOTION_DDOT": 0}, "tle": {"line1": "1 31715U 99025CDN 25359.98372886  .00003424  00000+0  68226-3 0  9996", "line2": "2 31715  99.2928 190.2178 0187034  80.0469 282.1776 14.52262555619091"}}, "geometry": {"type": "Point", "coordinates": [-173.9335154446762, 26.90974652584505]}}, {"type": "Feature", "properties": {"norad_id": 31716, "name": "FENGYUN 1C DEB", "group": "fengyun-1c-debris", "lat": 77.96872996073384, "lon": -146.21835876301364, "alt_km": 790.1869728586817, "timestamp": "2025-12-26T12:57:39.556426+00:00", "meta": {"OBJECT_NAME": "FENGYUN 1C DEB", "OBJECT_ID": "1999-025CDP", "EPOCH": "2025-12-24T04:50:25.649664", "MEAN_MOTION": 14.03659339, "ECCENTRICITY": 0.0131051, "INCLINATION": 98.5543, "RA_OF_ASC_NODE": 256.5089, "ARG_OF_PERICENTER": 59.2389, "MEAN_ANOMALY": 91.9884, "EPHEMERIS_TYPE": 0, "CLASSIFICATION_TYPE": "U", "NORAD_CAT_ID": 31716, "ELEMENT_SET_NO": 999, "REV_AT_EPOCH": 94280, "BSTAR": 0.0016512578, "MEAN_MOTION_DOT": 2.761e-05, "MEAN_MOTION_DDOT": 0}, "tle": {"line1": "1 31716U 99025CDP 25358.20168576  .00002761  00000+0  16513-2 0  9994", "line2": "2 31716  98.5543 256.5089 0131051  59.2389  91.9884 14.03659339942801"}}, "geometry": {"type": "Point", "coordinates": [-146.21835876301364, 77.96872996073384]}}, {"type": "Feature", "properties": {"norad_id": 31720, "name": "FENGYUN 1C DEB", "group": "fengyun-1c-debris", "lat": 15.309195331179772, "lon": -88.50059976113201, "alt_km": 625.7503597914338, "timestamp": "2025-12-26T12:57:39.556436+00:00", "meta": {"OBJECT_NAME": "FENGYUN 1C DEB", "OBJECT_ID": "1999-025CDT", "EPOCH": "2025-12-24T16:50:31.302816", "MEAN_MOTION": 14.719334, "ECCENTRICITY": 0.01003361, "INCLINATION": 99.0481, "RA_OF_ASC_NODE": 271.9563, "ARG_OF_PERICENTER": 86.8005, "MEAN_ANOMALY": 274.4673, "EPHEMERIS_TYPE": 0, "CLASSIFICATION_TYPE": "U", "NORAD_CAT_ID": 31720, "ELEMENT_SET_NO": 999, "REV_AT_EPOCH": 98412, "BSTAR": 0.00085182682, "MEAN_MOTION_DOT": 5.716e-05, "MEAN_MOTION_DDOT": 0}, "tle": {"line1": "1 31720U 99025CDT 25358.70175119  .00005716  00000+0  85183-3 0  9998", "line2": "2 31720  99.0481 271.9563 0100336  86.8005 274.4673 14.71933400984128"}}, "geometry": {"type": "Point", "coordinates": [-88.50059976113201, 15.309195331179772]}}, {"type": "Feature", "properties": {"norad_id": 31721, "name": "FENGYUN 1C DEB", "group": "fengyun-1c-debris", "lat": -78.26972924928948, "lon": 36.684019757426, "alt_km": 1134.874657637748, "timestamp": "2025-12-26T12:57:39.556446+00:00", "meta": {"OBJECT_NAME": "FENGYUN 1C DEB", "OBJECT_ID": "1999-025CDU", "EPOCH": "2025-12-25T04:30:13.281408", "MEAN_MOTION": 13.73788771, "ECCENTRICITY": 0.03177259, "INCLINATION": 99.7824, "RA_OF_ASC_NODE": 339.1125, "ARG_OF_PERICENTER": 151.3323, "MEAN_ANOMALY": 277.3613, "EPHEMERIS_TYPE": 0, "CLASSIFICATION_TYPE": "U", "NORAD_CAT_ID": 31721, "ELEMENT_SET_NO": 999, "REV_AT_EPOCH": 67557, "BSTAR": 0.00032349284, "MEAN_MOTION_DOT": 3.91e-06, "MEAN_MOTION_DDOT": 0}, "tle": {"line1": "1 31721U 99025CDU 25359.18765372  .00000391  00000+0  32349-3 0  9998", "line2": "2 31721  99.7824 339.1125 0317725 151.3323 277.3613 13.73788771675573"}}, "geometry": {"type": "Point", "coordinates": [36.684019757426, -78.26972924928948]}}, {"type": "Feature", "properties": {"norad_id": 31724, "name": "FENGYUN 1C DEB", "group": "fengyun-1c-debris", "lat": -53.217653115361195, "lon": 174.93519640657874, "alt_km": 645.193343749168, "timestamp": "2025-12-26T12:57:39.556459+00:00", "meta": {"OBJECT_NAME": "FENGYUN 1C DEB", "OBJECT_ID": "1999-025CDX", "EPOCH": "2025-12-26T06:54:58.294944", "MEAN_MOTION": 14.49360372, "ECCENTRICITY": 0.01518268, "INCLINATION": 97.8549, "RA_OF_ASC_NODE": 5.3414, "ARG_OF_PERICENTER": 200.2257, "MEAN_ANOMALY": 159.2883, "EPHEMERIS_TYPE": 0, "CLASSIFICATION_TYPE": "U", "NORAD_CAT_ID": 31724, "ELEMENT_SET_NO": 999, "REV_AT_EPOCH": 64688, "BSTAR": 0.0021763106, "MEAN_MOTION_DOT": 9.599e-05, "MEAN_MOTION_DDOT": 0}, "tle": {"line1": "1 31724U 99025CDX 25360.28817471  .00009599  00000+0  21763-2 0  9998", "line2": "2 31724  97.8549   5.3414 0151826 200.2257 159.2883 14.49360372646886"}}, "geometry": {"type": "Point", "coordinates": [174.93519640657874, -53.217653115361195]}}, {"type": "Feature", "properties": {"norad_id": 31725, "name": "FENGYUN 1C DEB", "group": "fengyun-1c-debris", "lat": -74.49983538160501, "lon": -0.6638356195563418, "alt_km": 963.9408816478526, "timestamp": "2025-12-26T12:57:39.556469+00:00", "meta": {"OBJECT_NAME": "FENGYUN 1C DEB", "OBJECT_ID": "1999-025CDY", "EPOCH": "2025-12-17T21:05:21.230880", "MEAN_MOTION": 12.79203585, "ECCENTRICITY": 0.06944571, "INCLINATION": 99.1801, "RA_OF_ASC_NODE": 207.8945, "ARG_OF_PERICENTER": 323.3807, "MEAN_ANOMALY": 32.1667, "EPHEMERIS_TYPE": 0, "CLASSIFICATION_TYPE": "U", "NORAD_CAT_ID": 31725, "ELEMENT_SET_NO": 999, "REV_AT_EPOCH": 86547, "BSTAR": 0.0022154725, "MEAN_MOTION_DOT": 1.348e-05, "MEAN_MOTION_DDOT": 0}, "tle": {"line1": "1 31725U 99025CDY 25351.87871795  .00001348  00000+0  22155-2 0  9993", "line2": "2 31725  99.1801 207.8945 0694457 323.3807  32.1667 12.79203585865471"}}, "geometry": {"type": "Point", "coordinates": [-0.6638356195563418, -74.49983538160501]}}, {"type": "Feature", "properties": {"norad_id": 31727, "name": "FENGYUN 1C DEB", "group": "fengyun-1c-debris", "lat": 0.6346001769915746, "lon": 112.90567136656387, "alt_km": 759.9722772207106, "timestamp": "2025-12-26T12:57:39.556479+00:00", "meta": {"OBJECT_NAME": "FENGYUN 1C DEB", "OBJECT_ID": "1999-025CEA", "EPOCH": "2025-12-25T19:17:35.957760", "MEAN_MOTION": 14.37159668, "ECCENTRICITY": 0.00328979, "INCLINATION": 98.8656, "RA_OF_ASC_NODE": 112.2465, "ARG_OF_PERICENTER": 299.956, "MEAN_ANOMALY": 213.939, "EPHEMERIS_TYPE": 0, "CLASSIFICATION_TYPE": "U", "NORAD_CAT_ID": 31727, "ELEMENT_SET_NO": 999, "REV_AT_EPOCH": 71856, "BSTAR": 0.0021323953, "MEAN_MOTION_DOT": 6.339e-05, "MEAN_MOTION_DDOT": 0}, "tle": {"line1": "1 31727U 99025CEA 25359.80388840  .00006339  00000+0  21324-2 0  9992", "line2": "2 31727  98.8656 112.2465 0032897 299.9560 213.9390 14.37159668718568"}}, "geometry": {"type": "Point", "coordinates": [112.90567136656387, 0.6346001769915746]}}, {"type": "Feature", "properties": {"norad_id": 31731, "name": "FENGYUN 1C DEB", "group": "fengyun-1c-debris", "lat": -22.73645719667141, "lon": 53.882878658880614, "alt_km": 761.3325101638347, "timestamp": "2025-12-26T12:57:39.556489+00:00", "meta": {"OBJECT_NAME": "FENGYUN 1C DEB", "OBJECT_ID": "1999-025CEE", "EPOCH": "2025-11-27T02:07:07.827456", "MEAN_MOTION": 14.40063792, "ECCENTRICITY": 0.00116613, "INCLINATION": 99.3084, "RA_OF_ASC_NODE": 17.9462, "ARG_OF_PERICENTER": 144.9647, "MEAN_ANOMALY": 215.2308, "EPHEMERIS_TYPE": 0, "CLASSIFICATION_TYPE": "U", "NORAD_CAT_ID": 31731, "ELEMENT_SET_NO": 999, "REV_AT_EPOCH": 95605, "BSTAR": 0.0018623031, "MEAN_MOTION_DOT": 5.831e-05, "MEAN_MOTION_DDOT": 0}, "tle": {"line1": "1 31731U 99025CEE 25331.08828504  .00005831  00000+0  18623-2 0  9997", "line2": "2 31731  99.3084  17.9462 0011661 144.9647 215.2308 14.40063792956051"}}, "geometry": {"type": "Point", "coordinates": [53.882878658880614, -22.73645719667141]}}, {"type": "Feature", "properties": {"norad_id": 31732, "name": "FENGYUN 1C DEB", "group": "fengyun-1c-debris", "lat": -52.02919960842489, "lon": 45.8334370633269, "alt_km": 864.2123699037247, "timestamp": "2025-12-26T12:57:39.556499+00:00", "meta": {"OBJECT_NAME": "FENGYUN 1C DEB", "OBJECT_ID": "1999-025CEF", "EPOCH": "2025-12-25T21:54:32.031072", "MEAN_MOTION": 14.12270156, "ECCENTRICITY": 0.0040223, "INCLINATION": 98.5721, "RA_OF_ASC_NODE": 34.0905, "ARG_OF_PERICENTER": 207.5058, "MEAN_ANOMALY": 152.3986, "EPHEMERIS_TYPE": 0, "CLASSIFICATION_TYPE": "U", "NORAD_CAT_ID": 31732, "ELEMENT_SET_NO": 999, "REV_AT_EPOCH": 64516, "BSTAR": 0.00031096, "MEAN_MOTION_DOT": 5.35e-06, "MEAN_MOTION_DDOT": 0}, "tle": {"line1": "1 31732U 99025CEF 25359.91287073  .00000535  00000+0  31096-3 0  9996", "line2": "2 31732  98.5721  34.0905 0040223 207.5058 152.3986 14.12270156645164"}}, "geometry": {"type": "Point", "coordinates": [45.8334370633269, -52.02919960842489]}}, {"type": "Feature", "properties": {"norad_id": 31734, "name": "FENGYUN 1C DEB", "group": "fengyun-1c-debris", "lat": -37.266402943486845, "lon": -1.143984313067162, "alt_km": 727.2418615216866, "timestamp": "2025-12-26T12:57:39.556509+00:00", "meta": {"OBJECT_NAME": "FENGYUN 1C DEB", "OBJECT_ID": "1999-025CEH", "EPOCH": "2025-12-17T05:38:30.357312", "MEAN_MOTION": 14.2902964, "ECCENTRICITY": 0.01035042, "INCLINATION": 98.4953, "RA_OF_ASC_NODE": 343.2584, "ARG_OF_PERICENTER": 354.3593, "MEAN_ANOMALY": 5.6416, "EPHEMERIS_TYPE": 0, "CLASSIFICATION_TYPE": "U", "NORAD_CAT_ID": 31734, "ELEMENT_SET_NO": 999, "REV_AT_EPOCH": 96515, "BSTAR": 0.00042036115, "MEAN_MOTION_DOT": 1.084e-05, "MEAN_MOTION_DDOT": 0}, "tle": {"line1": "1 31734U 99025CEH 25351.23507358  .00001084  00000+0  42036-3 0  9992", "line2": "2 31734  98.4953 343.2584 0103504 354.3593   5.6416 14.29029640965157"}}, "geometry": {"type": "Point", "coordinates": [-1.143984313067162, -37.266402943486845]}}]}